STARLINK-32000          
1 60289U 24132M   25211.71793056  .00004839  00000+0  17539-3 0  9997
2 60289  53.1593   3.6026 0001253  86.0262 274.0882 15.30199386 57575
STARLINK-32141          
1 60290U 24132N   25211.57147414 -.00000422  00000+0 -21328-5 0  9993
2 60290  53.1616   4.1100 0001150  86.5989 273.5143 15.30192254 57558
STARLINK-32142          
1 60291U 24132P   25211.74631043 -.00000005  00000+0  11959-4 0  9993
2 60291  53.1617   3.0664 0001205  85.6804 274.4334 15.30191949 57585
STARLINK-32149          
1 60292U 24132Q   25211.72109746 -.00000803  00000+0 -14990-4 0  9997
2 60292  53.1620   3.6211 0001113  77.9770 282.1356 15.30195447 57574
STARLINK-32159          
1 60293U 24132R   25211.74420247 -.00000517  00000+0 -53471-5 0  9992
2 60293  53.1620   3.0512 0001211  91.8305 268.2834 15.30190350 57586
STARLINK-32150          
1 60294U 24132S   25211.72426353  .00000311  00000+0  22636-4 0  9993
2 60294  53.1619   3.6433 0001136  95.5734 264.5396 15.30194300 57576
STARLINK-32126          
1 60295U 24132T   25211.73693199 -.00001007  00000+0 -21895-4 0  9990
2 60295  53.1614   3.7183 0001239  92.2212 267.8930 15.30186400 57576
STARLINK-32143          
1 60296U 24132U   25211.59680685 -.00001656  00000+0 -43833-4 0  9997
2 60296  53.1604   4.2693 0000985  94.5136 265.5977 15.30186930 57557
STARLINK-32034          
1 60297U 24132V   25211.71370737  .00000199  00000+0  18835-4 0  9999
2 60297  53.1616   3.5739 0001116  81.3685 278.7442 15.30199809 57567
STARLINK-32124          
1 60298U 24132W   25211.59574736 -.00000713  00000+0 -11964-4 0  9991
2 60298  53.1612   4.2610 0001085  88.4993 271.6132 15.30191584 57554
STARLINK-32151          
1 60299U 24132X   25211.85947658 -.00005407  00000+0 -17084-3 0  9991
2 60299  53.1604 334.3697 0001413  96.7732 263.3430 15.30147410 57981
STARLINK-32134          
1 60300U 24132Y   25211.57358382  .00000007  00000+0  12362-4 0  9997
2 60300  53.1613   4.1184 0001196  67.8106 292.3022 15.30196229 57553
STARLINK-11147 [DTC]    
1 60301U 24133A   25211.56327235 -.00000410  00000+0  14748-5 0  9991
2 60301  53.1591 161.4482 0001115  86.5326 273.5820 15.69707053 58845
STARLINK-11128 [DTC]    
1 60302U 24133B   25211.17634668  .00001635  00000+0  18350-4 0  9991
2 60302  53.1588 163.3014 0001137  80.6447 279.4700 15.69709193 58789
STARLINK-11227 [DTC]    
1 60303U 24133C   25211.23512264 -.00001958  00000+0 -11316-4 0  9991
2 60303  53.1583 162.9542 0000923  86.9583 273.1540 15.69698217 58886
STARLINK-11224 [DTC]    
1 60304U 24133D   25211.16655017  .00018674  00000+0  15905-3 0  9996
2 60304  53.1587 163.2350 0001488  96.0068 264.1120 15.69648240 58862
STARLINK-11115 [DTC]    
1 60305U 24133E   25211.28897385  .00000127  00000+0  59115-5 0  9993
2 60305  53.1593 162.5762 0001205  91.6266 268.4890 15.69700804 58807
