[{"OBJECT_NAME":"STARLINK-32000","OBJECT_ID":"2024-132M","EPOCH":"2025-07-30T17:13:49.200384","MEAN_MOTION":15.30199386,"ECCENTRICITY":0.0001253,"INCLINATION":53.1593,"RA_OF_ASC_NODE":3.6026,"ARG_OF_PERICENTER":86.0262,"MEAN_ANOMALY":274.0882,"EPHEMERIS_TYPE":0,"CLASSIFICATION_TYPE":"U","NORAD_CAT_ID":60289,"ELEMENT_SET_NO":999,"REV_AT_EPOCH":5757,"BSTAR":0.00017539,"MEAN_MOTION_DOT":4.839e-5,"MEAN_MOTION_DDOT":0},{"OBJECT_NAME":"STARLINK-32141","OBJECT_ID":"2024-132N","EPOCH":"2025-07-30T13:42:55.365696","MEAN_MOTION":15.30192254,"ECCENTRICITY":0.000115,"INCLINATION":53.1616,"RA_OF_ASC_NODE":4.11,"ARG_OF_PERICENTER":86.5989,"MEAN_ANOMALY":273.5143,"EPHEMERIS_TYPE":0,"CLASSIFICATION_TYPE":"U","NORAD_CAT_ID":60290,"ELEMENT_SET_NO":999,"REV_AT_EPOCH":5755,"BSTAR":-2.1328e-6,"MEAN_MOTION_DOT":-4.22e-6,"MEAN_MOTION_DDOT":0},{"OBJECT_NAME":"STARLINK-32142","OBJECT_ID":"2024-132P","EPOCH":"2025-07-30T17:54:41.221152","MEAN_MOTION":15.30191949,"ECCENTRICITY":0.0001205,"INCLINATION":53.1617,"RA_OF_ASC_NODE":3.0664,"ARG_OF_PERICENTER":85.6804,"MEAN_ANOMALY":274.4334,"EPHEMERIS_TYPE":0,"CLASSIFICATION_TYPE":"U","NORAD_CAT_ID":60291,"ELEMENT_SET_NO":999,"REV_AT_EPOCH":5758,"BSTAR":1.1959e-5,"MEAN_MOTION_DOT":-5.0e-8,"MEAN_MOTION_DDOT":0},{"OBJECT_NAME":"STARLINK-32149","OBJECT_ID":"2024-132Q","EPOCH":"2025-07-30T17:18:22.820544","MEAN_MOTION":15.30195447,"ECCENTRICITY":0.0001113,"INCLINATION":53.162,"RA_OF_ASC_NODE":3.6211,"ARG_OF_PERICENTER":77.977,"MEAN_ANOMALY":282.1356,"EPHEMERIS_TYPE":0,"CLASSIFICATION_TYPE":"U","NORAD_CAT_ID":60292,"ELEMENT_SET_NO":999,"REV_AT_EPOCH":5757,"BSTAR":-1.499e-5,"MEAN_MOTION_DOT":-8.03e-6,"MEAN_MOTION_DDOT":0},{"OBJECT_NAME":"STARLINK-32159","OBJECT_ID":"2024-132R","EPOCH":"2025-07-30T17:51:39.093408","MEAN_MOTION":15.3019035,"ECCENTRICITY":0.0001211,"INCLINATION":53.162,"RA_OF_ASC_NODE":3.0512,"ARG_OF_PERICENTER":91.8305,"MEAN_ANOMALY":268.2834,"EPHEMERIS_TYPE":0,"CLASSIFICATION_TYPE":"U","NORAD_CAT_ID":60293,"ELEMENT_SET_NO":999,"REV_AT_EPOCH":5758,"BSTAR":-5.3471e-6,"MEAN_MOTION_DOT":-5.17e-6,"MEAN_MOTION_DDOT":0},{"OBJECT_NAME":"STARLINK-32150","OBJECT_ID":"2024-132S","EPOCH":"2025-07-30T17:22:56.368992","MEAN_MOTION":15.301943,"ECCENTRICITY":0.0001136,"INCLINATION":53.1619,"RA_OF_ASC_NODE":3.6433,"ARG_OF_PERICENTER":95.5734,"MEAN_ANOMALY":264.5396,"EPHEMERIS_TYPE":0,"CLASSIFICATION_TYPE":"U","NORAD_CAT_ID":60294,"ELEMENT_SET_NO":999,"REV_AT_EPOCH":5757,"BSTAR":2.2636e-5,"MEAN_MOTION_DOT":3.11e-6,"MEAN_MOTION_DDOT":0},{"OBJECT_NAME":"STARLINK-32126","OBJECT_ID":"2024-132T","EPOCH":"2025-07-30T17:41:10.923936","MEAN_MOTION":15.301864,"ECCENTRICITY":0.0001239,"INCLINATION":53.1614,"RA_OF_ASC_NODE":3.7183,"ARG_OF_PERICENTER":92.2212,"MEAN_ANOMALY":267.893,"EPHEMERIS_TYPE":0,"CLASSIFICATION_TYPE":"U","NORAD_CAT_ID":60295,"ELEMENT_SET_NO":999,"REV_AT_EPOCH":5757,"BSTAR":-2.1895e-5,"MEAN_MOTION_DOT":-1.007e-5,"MEAN_MOTION_DDOT":0},{"OBJECT_NAME":"STARLINK-32143","OBJECT_ID":"2024-132U","EPOCH":"2025-07-30T14:19:24.111840","MEAN_MOTION":15.3018693,"ECCENTRICITY":9.85e-5,"INCLINATION":53.1604,"RA_OF_ASC_NODE":4.2693,"ARG_OF_PERICENTER":94.5136,"MEAN_ANOMALY":265.5977,"EPHEMERIS_TYPE":0,"CLASSIFICATION_TYPE":"U","NORAD_CAT_ID":60296,"ELEMENT_SET_NO":999,"REV_AT_EPOCH":5755,"BSTAR":-4.3833e-5,"MEAN_MOTION_DOT":-1.656e-5,"MEAN_MOTION_DDOT":0},{"OBJECT_NAME":"STARLINK-32034","OBJECT_ID":"2024-132V","EPOCH":"2025-07-30T17:07:44.316768","MEAN_MOTION":15.30199809,"ECCENTRICITY":0.0001116,"INCLINATION":53.1616,"RA_OF_ASC_NODE":3.5739,"ARG_OF_PERICENTER":81.3685,"MEAN_ANOMALY":278.7442,"EPHEMERIS_TYPE":0,"CLASSIFICATION_TYPE":"U","NORAD_CAT_ID":60297,"ELEMENT_SET_NO":999,"REV_AT_EPOCH":5756,"BSTAR":1.8835e-5,"MEAN_MOTION_DOT":1.99e-6,"MEAN_MOTION_DDOT":0},{"OBJECT_NAME":"STARLINK-32124","OBJECT_ID":"2024-132W","EPOCH":"2025-07-30T14:17:52.571904","MEAN_MOTION":15.30191584,"ECCENTRICITY":0.0001085,"INCLINATION":53.1612,"RA_OF_ASC_NODE":4.261,"ARG_OF_PERICENTER":88.4993,"MEAN_ANOMALY":271.6132,"EPHEMERIS_TYPE":0,"CLASSIFICATION_TYPE":"U","NORAD_CAT_ID":60298,"ELEMENT_SET_NO":999,"REV_AT_EPOCH":5755,"BSTAR":-1.1964e-5,"MEAN_MOTION_DOT":-7.13e-6,"MEAN_MOTION_DDOT":0},{"OBJECT_NAME":"STARLINK-32151","OBJECT_ID":"2024-132X","EPOCH":"2025-07-30T20:37:38.776512","MEAN_MOTION":15.3014741,"ECCENTRICITY":0.0001413,"INCLINATION":53.1604,"RA_OF_ASC_NODE":334.3697,"ARG_OF_PERICENTER":96.7732,"MEAN_ANOMALY":263.343,"EPHEMERIS_TYPE":0,"CLASSIFICATION_TYPE":"U","NORAD_CAT_ID":60299,"ELEMENT_SET_NO":999,"REV_AT_EPOCH":5798,"BSTAR":-0.00017084,"MEAN_MOTION_DOT":-5.407e-5,"MEAN_MOTION_DDOT":0},{"OBJECT_NAME":"STARLINK-32134","OBJECT_ID":"2024-132Y","EPOCH":"2025-07-30T13:45:57.642048","MEAN_MOTION":15.30196229,"ECCENTRICITY":0.0001196,"INCLINATION":53.1613,"RA_OF_ASC_NODE":4.1184,"ARG_OF_PERICENTER":67.8106,"MEAN_ANOMALY":292.3022,"EPHEMERIS_TYPE":0,"CLASSIFICATION_TYPE":"U","NORAD_CAT_ID":60300,"ELEMENT_SET_NO":999,"REV_AT_EPOCH":5755,"BSTAR":1.2362e-5,"MEAN_MOTION_DOT":7.0e-8,"MEAN_MOTION_DDOT":0},{"OBJECT_NAME":"STARLINK-11147 [DTC]","OBJECT_ID":"2024-133A","EPOCH":"2025-07-30T13:31:06.731040","MEAN_MOTION":15.69707053,"ECCENTRICITY":0.0001115,"INCLINATION":53.1591,"RA_OF_ASC_NODE":161.4482,"ARG_OF_PERICENTER":86.5326,"MEAN_ANOMALY":273.582,"EPHEMERIS_TYPE":0,"CLASSIFICATION_TYPE":"U","NORAD_CAT_ID":60301,"ELEMENT_SET_NO":999,"REV_AT_EPOCH":5884,"BSTAR":1.4748e-6,"MEAN_MOTION_DOT":-4.1e-6,"MEAN_MOTION_DDOT":0},{"OBJECT_NAME":"STARLINK-11128 [DTC]","OBJECT_ID":"2024-133B","EPOCH":"2025-07-30T04:13:56.353152","MEAN_MOTION":15.69709193,"ECCENTRICITY":0.0001137,"INCLINATION":53.1588,"RA_OF_ASC_NODE":163.3014,"ARG_OF_PERICENTER":80.6447,"MEAN_ANOMALY":279.47,"EPHEMERIS_TYPE":0,"CLASSIFICATION_TYPE":"U","NORAD_CAT_ID":60302,"ELEMENT_SET_NO":999,"REV_AT_EPOCH":5878,"BSTAR":1.835e-5,"MEAN_MOTION_DOT":1.635e-5,"MEAN_MOTION_DDOT":0},{"OBJECT_NAME":"STARLINK-11227 [DTC]","OBJECT_ID":"2024-133C","EPOCH":"2025-07-30T05:38:34.596096","MEAN_MOTION":15.69698217,"ECCENTRICITY":9.23e-5,"INCLINATION":53.1583,"RA_OF_ASC_NODE":162.9542,"ARG_OF_PERICENTER":86.9583,"MEAN_ANOMALY":273.154,"EPHEMERIS_TYPE":0,"CLASSIFICATION_TYPE":"U","NORAD_CAT_ID":60303,"ELEMENT_SET_NO":999,"REV_AT_EPOCH":5888,"BSTAR":-1.1316e-5,"MEAN_MOTION_DOT":-1.958e-5,"MEAN_MOTION_DDOT":0},{"OBJECT_NAME":"STARLINK-11224 [DTC]","OBJECT_ID":"2024-133D","EPOCH":"2025-07-30T03:59:49.934688","MEAN_MOTION":15.6964824,"ECCENTRICITY":0.0001488,"INCLINATION":53.1587,"RA_OF_ASC_NODE":163.235,"ARG_OF_PERICENTER":96.0068,"MEAN_ANOMALY":264.112,"EPHEMERIS_TYPE":0,"CLASSIFICATION_TYPE":"U","NORAD_CAT_ID":60304,"ELEMENT_SET_NO":999,"REV_AT_EPOCH":5886,"BSTAR":0.00015905,"MEAN_MOTION_DOT":0.00018674,"MEAN_MOTION_DDOT":0},{"OBJECT_NAME":"STARLINK-11115 [DTC]","OBJECT_ID":"2024-133E","EPOCH":"2025-07-30T06:56:07.340640","MEAN_MOTION":15.69700804,"ECCENTRICITY":0.0001205,"INCLINATION":53.1593,"RA_OF_ASC_NODE":162.5762,"ARG_OF_PERICENTER":91.6266,"MEAN_ANOMALY":268.489,"EPHEMERIS_TYPE":0,"CLASSIFICATION_TYPE":"U","NORAD_CAT_ID":60305,"ELEMENT_SET_NO":999,"REV_AT_EPOCH":5880,"BSTAR":5.9115e-6,"MEAN_MOTION_DOT":1.27e-6,"MEAN_MOTION_DDOT":0}]
